{
  "type": "FeatureCollection",
  "features": [
    {
      "type": "Feature",
      "properties": {
        "name": "laptop-5km Denver CO"
      },
      "geometry": {
        "type": "Polygon",
        "coordinates": [
          [
            [
              -105.04490874878633,
              39.72184096254749
            ],
            [
              -104.98509125121367,
              39.72184096254749
            ],
            [
              -104.98509125121367,
              39.768159037452506
            ],
            [
              -105.04490874878633,
              39.768159037452506
            ],
            [
              -105.04490874878633,
              39.72184096254749
            ]
          ]
        ]
      }
    }
  ]
}
