{
  "type": "FeatureCollection",
  "name": "quickstart",
  "crs": {
    "type": "name",
    "properties": {
      "name": "urn:ogc:def:crs:OGC:1.3:CRS84"
    }
  },
  "features": [
    {
      "type": "Feature",
      "properties": {
        "Name": "quickstart",
        "Note": "10 km box over Story County, IA (Ames). Story County is the densest corn-producing county in the US (USDA NASS) and is well-covered by OPERA RTC-S1 (~6 ascending acquisitions per month) and Sentinel-2 (~12 acquisitions per month). Chosen to exercise both ingest paths in a realistic agricultural setting."
      },
      "geometry": {
        "type": "Polygon",
        "coordinates": [[
          [-93.65, 42.00],
          [-93.55, 42.00],
          [-93.55, 42.10],
          [-93.65, 42.10],
          [-93.65, 42.00]
        ]]
      }
    }
  ]
}
